start=new Date('2021-08-26T00:00:00.000Z').valueOf();
sats=[{"REF_FRAME":"TEME","REV_AT_EPOCH":"4995","OBJECT_ID":"2020-073BD","RA_OF_ASC_NODE":"327.2315","FILE":"3103151","PERIOD":"89.639","OBJECT_NAME":"STARLINK-1824","CENTER_NAME":"EARTH","COUNTRY_CODE":"US","MEAN_MOTION_DOT":"0.00163831","NORAD_CAT_ID":"46721","PERIAPSIS":"253.444","EPHEMERIS_TYPE":"0","DECAY_DATE":null,"SEMIMAJOR_AXIS":"6634.744","ECCENTRICITY":"0.00047690","MEAN_MOTION_DDOT":"0.0000236320000","BSTAR":"0.00021596000000","TIME_SYSTEM":"UTC","MEAN_ELEMENT_THEORY":"SGP4","OBJECT_TYPE":"PAYLOAD","APOAPSIS":"259.773","MEAN_MOTION":"16.06447564","SITE":"AFETR","TLE_LINE2":"2 46721  53.0055 327.2315 0004769 337.5579  22.5244 16.06447564 49957","ARG_OF_PERICENTER":"337.5579","RCS_SIZE":"LARGE","ELEMENT_SET_NO":"999","INCLINATION":"53.0055","GP_ID":"183423466","TLE_LINE1":"1 46721U 20073BD  21237.52238767  .00163831  23632-4  21596-3 0  9995","MEAN_ANOMALY":"22.5244","LAUNCH_DATE":"2020-10-18","EPOCH":"2021-08-25T12:32:14.294688","CLASSIFICATION_TYPE":"U"},{"PERIAPSIS":"545.985","SEMIMAJOR_AXIS":"6925.357","DECAY_DATE":null,"EPHEMERIS_TYPE":"0","MEAN_MOTION_DDOT":"0.0000000000000","ECCENTRICITY":"0.00017870","BSTAR":"0.00006770000000","OBJECT_ID":"2020-073BE","REF_FRAME":"TEME","REV_AT_EPOCH":"4720","RA_OF_ASC_NODE":"134.0875","CENTER_NAME":"EARTH","OBJECT_NAME":"STARLINK-1825","FILE":"3103208","PERIOD":"95.592","NORAD_CAT_ID":"46722","MEAN_MOTION_DOT":"0.00000727","COUNTRY_CODE":"US","TLE_LINE1":"1 46722U 20073BE  21237.93144902  .00000727  00000-0  67700-4 0  9990","LAUNCH_DATE":"2020-10-18","MEAN_ANOMALY":"275.8394","EPOCH":"2021-08-25T22:21:17.195328","CLASSIFICATION_TYPE":"U","MEAN_MOTION":"15.06397114","APOAPSIS":"548.460","OBJECT_TYPE":"PAYLOAD","MEAN_ELEMENT_THEORY":"SGP4","TIME_SYSTEM":"UTC","TLE_LINE2":"2 46722  53.0547 134.0875 0001787  84.2799 275.8394 15.06397114 47205","SITE":"AFETR","RCS_SIZE":"LARGE","ARG_OF_PERICENTER":"84.2799","GP_ID":"183445623","ELEMENT_SET_NO":"999","INCLINATION":"53.0547"},{"TIME_SYSTEM":"UTC","MEAN_ELEMENT_THEORY":"SGP4","OBJECT_TYPE":"PAYLOAD","APOAPSIS":"548.752","MEAN_MOTION":"15.06393631","TLE_LINE2":"2 46723  53.0558  94.2717 0002193  78.2959 281.8276 15.06393631 47760","SITE":"AFETR","RCS_SIZE":"LARGE","ARG_OF_PERICENTER":"78.2959","ELEMENT_SET_NO":"999","INCLINATION":"53.0558","GP_ID":"183446369","TLE_LINE1":"1 46723U 20073BF  21237.89091334  .00001117  00000-0  93939-4 0  9993","LAUNCH_DATE":"2020-10-18","MEAN_ANOMALY":"281.8276","EPOCH":"2021-08-25T21:22:54.912576","CLASSIFICATION_TYPE":"U","REV_AT_EPOCH":"4776","REF_FRAME":"TEME","OBJECT_ID":"2020-073BF","RA_OF_ASC_NODE":"94.2717","PERIOD":"95.593","FILE":"3103208","OBJECT_NAME":"STARLINK-1826","CENTER_NAME":"EARTH","MEAN_MOTION_DOT":"0.00001117","COUNTRY_CODE":"US","NORAD_CAT_ID":"46723","PERIAPSIS":"545.714","EPHEMERIS_TYPE":"0","DECAY_DATE":null,"SEMIMAJOR_AXIS":"6925.368","ECCENTRICITY":"0.00021930","MEAN_MOTION_DDOT":"0.0000000000000","BSTAR":"0.00009393900000"},{"SITE":"AFETR","TLE_LINE2":"2 46724  53.0500  89.9860 0007785 334.6931  25.3691 15.42178710 47827","MEAN_ELEMENT_THEORY":"SGP4","TIME_SYSTEM":"UTC","APOAPSIS":"444.990","MEAN_MOTION":"15.42178710","OBJECT_TYPE":"PAYLOAD","GP_ID":"183447129","INCLINATION":"53.0500","ELEMENT_SET_NO":"999","RCS_SIZE":"LARGE","ARG_OF_PERICENTER":"334.6931","LAUNCH_DATE":"2020-10-18","MEAN_ANOMALY":"25.3691","TLE_LINE1":"1 46724U 20073BG  21237.90068172  .00003333  00000-0  85987-4 0  9996","CLASSIFICATION_TYPE":"U","EPOCH":"2021-08-25T21:36:58.900608","RA_OF_ASC_NODE":"89.9860","REV_AT_EPOCH":"4782","REF_FRAME":"TEME","OBJECT_ID":"2020-073BG","NORAD_CAT_ID":"46724","COUNTRY_CODE":"US","MEAN_MOTION_DOT":"0.00003333","CENTER_NAME":"EARTH","OBJECT_NAME":"STARLINK-1827","PERIOD":"93.374","FILE":"3103208","EPHEMERIS_TYPE":"0","SEMIMAJOR_AXIS":"6817.818","DECAY_DATE":null,"PERIAPSIS":"434.375","BSTAR":"0.00008598700000","MEAN_MOTION_DDOT":"0.0000000000000","ECCENTRICITY":"0.00077850"},{"RA_OF_ASC_NODE":"134.2550","OBJECT_ID":"2020-073BH","REV_AT_EPOCH":"4720","REF_FRAME":"TEME","NORAD_CAT_ID":"46725","MEAN_MOTION_DOT":"0.00001264","COUNTRY_CODE":"US","OBJECT_NAME":"STARLINK-1828","CENTER_NAME":"EARTH","FILE":"3103208","PERIOD":"95.592","SEMIMAJOR_AXIS":"6925.347","DECAY_DATE":null,"EPHEMERIS_TYPE":"0","PERIAPSIS":"545.800","BSTAR":"0.00010375000000","MEAN_MOTION_DDOT":"0.0000000000000","ECCENTRICITY":"0.00020380","TLE_LINE2":"2 46725  53.0545 134.2550 0002038  72.5364 287.5848 15.06400643 47202","SITE":"AFETR","MEAN_MOTION":"15.06400643","APOAPSIS":"548.623","OBJECT_TYPE":"PAYLOAD","MEAN_ELEMENT_THEORY":"SGP4","TIME_SYSTEM":"UTC","GP_ID":"183445379","INCLINATION":"53.0545","ELEMENT_SET_NO":"999","ARG_OF_PERICENTER":"72.5364","RCS_SIZE":"LARGE","LAUNCH_DATE":"2020-10-18","MEAN_ANOMALY":"287.5848","TLE_LINE1":"1 46725U 20073BH  21237.89458711  .00001264  00000-0  10375-3 0  9996","EPOCH":"2021-08-25T21:28:12.326304","CLASSIFICATION_TYPE":"U"},{"ARG_OF_PERICENTER":"100.3761","RCS_SIZE":"LARGE","GP_ID":"183446124","INCLINATION":"53.0556","ELEMENT_SET_NO":"999","MEAN_ELEMENT_THEORY":"SGP4","TIME_SYSTEM":"UTC","MEAN_MOTION":"15.06393518","APOAPSIS":"554.258","OBJECT_TYPE":"PAYLOAD","SITE":"AFETR","TLE_LINE2":"2 46726  53.0556 119.1396 0010143 100.3761 259.8372 15.06393518 47411","EPOCH":"2021-08-25T22:04:43.771584","CLASSIFICATION_TYPE":"U","TLE_LINE1":"1 46726U 20073BJ  21237.91995106 -.00000949  00000-0 -44486-4 0  9996","LAUNCH_DATE":"2020-10-18","MEAN_ANOMALY":"259.8372","OBJECT_NAME":"STARLINK-1829","CENTER_NAME":"EARTH","PERIOD":"95.593","FILE":"3103208","NORAD_CAT_ID":"46726","COUNTRY_CODE":"US","MEAN_MOTION_DOT":"-0.00000949","REV_AT_EPOCH":"4741","REF_FRAME":"TEME","OBJECT_ID":"2020-073BJ","RA_OF_ASC_NODE":"119.1396","MEAN_MOTION_DDOT":"0.0000000000000","ECCENTRICITY":"0.00101430","BSTAR":"-0.00004448600000","PERIAPSIS":"540.209","EPHEMERIS_TYPE":"0","SEMIMAJOR_AXIS":"6925.368","DECAY_DATE":null},{"EPOCH":"2021-08-25T21:01:40.120320","CLASSIFICATION_TYPE":"U","TLE_LINE1":"1 46727U 20073BK  21237.87615880  .00000899  00000-0  79242-4 0  9990","MEAN_ANOMALY":"284.6620","LAUNCH_DATE":"2020-10-18","ARG_OF_PERICENTER":"75.4609","RCS_SIZE":"LARGE","GP_ID":"183446870","INCLINATION":"53.0536","ELEMENT_SET_NO":"999","MEAN_ELEMENT_THEORY":"SGP4","TIME_SYSTEM":"UTC","APOAPSIS":"548.712","MEAN_MOTION":"15.06400931","OBJECT_TYPE":"PAYLOAD","TLE_LINE2":"2 46727  53.0536  94.3472 0002168  75.4609 284.6620 15.06400931 47768","SITE":"AFETR","MEAN_MOTION_DDOT":"0.0000000000000","ECCENTRICITY":"0.00021680","BSTAR":"0.00007924200000","PERIAPSIS":"545.709","EPHEMERIS_TYPE":"0","SEMIMAJOR_AXIS":"6925.346","DECAY_DATE":null,"OBJECT_NAME":"STARLINK-1830","CENTER_NAME":"EARTH","FILE":"3103208","PERIOD":"95.592","NORAD_CAT_ID":"46727","MEAN_MOTION_DOT":"0.00000899","COUNTRY_CODE":"US","REV_AT_EPOCH":"4776","REF_FRAME":"TEME","OBJECT_ID":"2020-073BK","RA_OF_ASC_NODE":"94.3472"},{"NORAD_CAT_ID":"46728","COUNTRY_CODE":"US","MEAN_MOTION_DOT":"0.00001156","CENTER_NAME":"EARTH","OBJECT_NAME":"STARLINK-1831","PERIOD":"95.592","FILE":"3103208","RA_OF_ASC_NODE":"109.0828","REV_AT_EPOCH":"4755","REF_FRAME":"TEME","OBJECT_ID":"2020-073BL","BSTAR":"0.00009649000000","MEAN_MOTION_DDOT":"0.0000000000000","ECCENTRICITY":"0.00022830","EPHEMERIS_TYPE":"0","SEMIMAJOR_AXIS":"6925.342","DECAY_DATE":null,"PERIAPSIS":"545.626","GP_ID":"183446629","INCLINATION":"53.0546","ELEMENT_SET_NO":"999","ARG_OF_PERICENTER":"82.2268","RCS_SIZE":"LARGE","TLE_LINE2":"2 46728  53.0546 109.0828 0002283  82.2268 277.8980 15.06402123 47559","SITE":"AFETR","MEAN_ELEMENT_THEORY":"SGP4","TIME_SYSTEM":"UTC","APOAPSIS":"548.788","MEAN_MOTION":"15.06402123","OBJECT_TYPE":"PAYLOAD","CLASSIFICATION_TYPE":"U","EPOCH":"2021-08-25T22:21:56.598912","MEAN_ANOMALY":"277.8980","LAUNCH_DATE":"2020-10-18","TLE_LINE1":"1 46728U 20073BL  21237.93190508  .00001156  00000-0  96490-4 0  9994"},{"TLE_LINE1":"1 46740U 20074B   21237.90289561  .00000620  00000-0  60542-4 0  9998","LAUNCH_DATE":"2020-10-24","MEAN_ANOMALY":"279.9606","EPOCH":"2021-08-25T21:40:10.180704","CLASSIFICATION_TYPE":"U","MEAN_ELEMENT_THEORY":"SGP4","TIME_SYSTEM":"UTC","MEAN_MOTION":"15.06387086","APOAPSIS":"548.156","OBJECT_TYPE":"PAYLOAD","TLE_LINE2":"2 46740  53.0552 204.2191 0001304  80.1530 279.9606 15.06387086 46886","SITE":"AFETR","RCS_SIZE":"LARGE","ARG_OF_PERICENTER":"80.1530","GP_ID":"183445380","ELEMENT_SET_NO":"999","INCLINATION":"53.0552","PERIAPSIS":"546.350","EPHEMERIS_TYPE":"0","SEMIMAJOR_AXIS":"6925.388","DECAY_DATE":null,"MEAN_MOTION_DDOT":"0.0000000000000","ECCENTRICITY":"0.00013040","BSTAR":"0.00006054200000","REF_FRAME":"TEME","REV_AT_EPOCH":"4688","OBJECT_ID":"2020-074B","RA_OF_ASC_NODE":"204.2191","OBJECT_NAME":"STARLINK-1848","CENTER_NAME":"EARTH","FILE":"3103208","PERIOD":"95.593","NORAD_CAT_ID":"46740","MEAN_MOTION_DOT":"0.00000620","COUNTRY_CODE":"US"},{"EPHEMERIS_TYPE":"0","DECAY_DATE":null,"SEMIMAJOR_AXIS":"6925.350","PERIAPSIS":"546.237","BSTAR":"0.00006069800000","ECCENTRICITY":"0.00014120","MEAN_MOTION_DDOT":"0.0000000000000","RA_OF_ASC_NODE":"201.8371","REF_FRAME":"TEME","REV_AT_EPOCH":"4687","OBJECT_ID":"2020-074C","COUNTRY_CODE":"US","MEAN_MOTION_DOT":"0.00000623","NORAD_CAT_ID":"46741","FILE":"3103042","PERIOD":"95.592","OBJECT_NAME":"STARLINK-1865","CENTER_NAME":"EARTH","MEAN_ANOMALY":"306.6322","LAUNCH_DATE":"2020-10-24","TLE_LINE1":"1 46741U 20074C   21237.32282438  .00000623  00000-0  60698-4 0  9996","EPOCH":"2021-08-25T07:44:52.026432","CLASSIFICATION_TYPE":"U","SITE":"AFETR","TLE_LINE2":"2 46741  53.0534 201.8371 0001412  53.4797 306.6322 15.06399576 46877","TIME_SYSTEM":"UTC","MEAN_ELEMENT_THEORY":"SGP4","OBJECT_TYPE":"PAYLOAD","APOAPSIS":"548.193","MEAN_MOTION":"15.06399576","ELEMENT_SET_NO":"999","INCLINATION":"53.0534","GP_ID":"183419168","ARG_OF_PERICENTER":"53.4797","RCS_SIZE":"LARGE"}];
